H1 CPF  1  HTS 2022  5 10 12  6301 larets           NONE
H2  0304206 5557    27944 2022 05 10  0  0  0 2022 05 15  0  0  0   180 1 1  0 0 0
H5  0.0560 
H9 
10 0 59710  10440.00000  0    -625775.611    -893220.005    6962207.802
10 0 59710  10620.00000  0   -1932683.730    -558002.751    6755810.468
10 0 59710  10800.00000  0   -3159708.283    -169201.577    6301589.158
10 0 59710  10980.00000  0   -4261008.047     256323.330    5616265.439
10 0 59710  11160.00000  0   -5195803.938     699245.627    4725010.374
10 0 59710  11340.00000  0   -5929923.164    1138628.182    3660535.923
10 0 59710  11520.00000  0   -6437088.530    1552879.748    2461901.737
10 0 59710  11700.00000  0   -6699898.314    1920769.811    1173076.758
10 0 59710  11880.00000  0   -6710452.040    2222453.097    -158697.813
10 0 59710  12060.00000  0   -6470582.528    2440451.192   -1484680.625
10 0 59710  12240.00000  0   -5991683.251    2560538.478   -2756453.702
10 0 59710  12420.00000  0   -5294145.198    2572490.534   -3927719.619
10 0 59710  12600.00000  0   -4406433.991    2470653.944   -4955990.586
10 0 59710  12780.00000  0   -3363869.527    2254313.926   -5804097.873
10 0 59710  12960.00000  0   -2207179.473    1927851.052   -6441474.244
10 0 59710  13140.00000  0    -980893.949    1500684.398   -6845184.618
10 0 59710  13320.00000  0     268355.270     987004.751   -7000680.283
10 0 59710  13500.00000  0    1493565.198     405312.436   -6902276.160
10 0 59710  13680.00000  0    2649083.237    -222228.532   -6553353.586
10 0 59710  13860.00000  0    3692272.255    -870606.801   -5966272.824
10 0 59710  14040.00000  0    4585068.640   -1512926.197   -5161996.266
10 0 59710  14220.00000  0    5295389.873   -2121490.560   -4169424.466
10 0 59710  14400.00000  0    5798342.430   -2668977.252   -3024439.830
10 0 59710  14580.00000  0    6077172.464   -3129649.311   -1768669.232
10 0 59710  14760.00000  0    6123905.463   -3480550.757    -447994.232
10 0 59710  14940.00000  0    5939632.499   -3702623.939     889139.393
10 0 59710  15120.00000  0    5534417.280   -3781688.246    2193547.340
10 0 59710  15300.00000  0    4926814.319   -3709219.344    3417187.400
10 0 59710  15480.00000  0    4143021.265   -3482880.977    4514995.039
10 0 59710  15660.00000  0    3215719.526   -3106785.520    5446592.342
10 0 59710  15840.00000  0    2182659.244   -2591469.944    6177796.888
10 0 59710  16020.00000  0    1085068.925   -1953589.510    6681868.350
10 0 59710  16200.00000  0     -34033.139   -1215351.746    6940457.049
10 0 59710  16380.00000  0   -1131551.243    -403714.922    6944234.012
10 0 59710  16560.00000  0   -2165982.292     450616.941    6693195.815
10 0 59710  16740.00000  0   -3098989.533    1314367.164    6196645.075
10 0 59710  16920.00000  0   -3896830.319    2152988.032    5472849.222
10 0 59710  17100.00000  0   -4531593.438    2932047.623    4548385.941
10 0 59710  17280.00000  0   -4982201.426    3618652.669    3457183.426
10 0 59710  17460.00000  0   -5235133.427    4182845.400    2239280.722
10 0 59710  17640.00000  0   -5284838.023    4598915.955     939350.433
10 0 59710  17820.00000  0   -5133814.053    4846563.715    -394968.720
10 0 59710  18000.00000  0   -4792354.098    4911843.818   -1714857.012
10 0 59710  18180.00000  0   -4277963.377    4787855.242   -2972142.250
10 0 59710  18360.00000  0   -3614484.209    4475128.766   -4121084.770
10 0 59710  18540.00000  0   -2830980.869    3981702.752   -5120036.005
10 0 59710  18720.00000  0   -1960453.321    3322897.829   -5932906.304
10 0 59710  18900.00000  0   -1038446.440    2520812.020   -6530407.292
10 0 59710  19080.00000  0    -101609.519    1603555.756   -6891036.705
10 0 59710  19260.00000  0     813732.199     604265.234   -7001785.341
10 0 59710  19440.00000  0    1672948.714    -440071.193   -6858568.258
10 0 59710  19620.00000  0    2444383.522   -1489945.104   -6466371.363
10 0 59710  19800.00000  0    3100498.374   -2504779.643   -5839111.457
10 0 59710  19980.00000  0    3618858.212   -3444464.347   -4999213.780
10 0 59710  20160.00000  0    3982925.368   -4270936.367   -3976893.930
10 0 59710  20340.00000  0    4182622.665   -4949738.368   -2809146.469
10 0 59710  20520.00000  0    4214646.698   -5451494.607   -1538465.269
10 0 59710  20700.00000  0    4082503.487   -5753234.670    -211314.799
10 0 59710  20880.00000  0    3796251.505   -5839483.753    1123592.877
10 0 59710  21060.00000  0    3371958.647   -5703054.639    2417141.313
10 0 59710  21240.00000  0    2830895.371   -5345487.681    3621688.682
10 0 59710  21420.00000  0    2198506.480   -4777114.848    4692885.338
10 0 59710  21600.00000  0    1503223.343   -4016747.090    5591350.991
10 0 59710  21780.00000  0     775177.876   -3091002.110    6284140.787
10 0 59710  21960.00000  0      44881.394   -2033309.459    6745941.114
10 0 59710  22140.00000  0    -658063.535    -882650.468    6959958.541
10 0 59710  22320.00000  0   -1306165.000     317913.816    6918495.948
10 0 59710  22500.00000  0   -1875117.554    1522877.630    6623203.092
10 0 59710  22680.00000  0   -2344714.846    2686027.528    6084998.428
10 0 59710  22860.00000  0   -2699569.606    3762223.943    5323669.855
10 0 59710  23040.00000  0   -2929619.520    4709169.078    4367165.000
10 0 59710  23220.00000  0   -3030403.365    5489098.175    3250582.870
10 0 59710  23400.00000  0   -3003092.533    6070321.664    2014889.020
10 0 59710  23580.00000  0   -2854276.634    6428543.282     705398.749
10 0 59710  23760.00000  0   -2595513.510    6547893.103    -629912.552
10 0 59710  23940.00000  0   -2242667.051    6421623.391   -1942207.932
10 0 59710  24120.00000  0   -1815063.992    6052420.691   -3183621.162
10 0 59710  24300.00000  0   -1334514.976    5452319.052   -4309019.842
10 0 59710  24480.00000  0    -824263.553    4642245.560   -5277630.234
10 0 59710  24660.00000  0    -307913.667    3651228.001   -6054471.352
10 0 59710  24840.00000  0     191618.127    2515307.323   -6611558.093
10 0 59710  25020.00000  0     653079.743    1276202.239   -6928837.867
10 0 59710  25200.00000  0    1057751.651     -20212.107   -6994850.564
10 0 59710  25380.00000  0    1390180.545   -1325567.254   -6807108.593
10 0 59710  25560.00000  0    1638755.409   -2590756.906   -6372189.737
10 0 59710  25740.00000  0    1796112.746   -3767735.715   -5705549.846
10 0 59710  25920.00000  0    1859359.228   -4811326.372   -4831050.251
10 0 59710  26100.00000  0    1830100.546   -5680969.655   -3780184.736
10 0 59710  26280.00000  0    1714272.464   -6342350.922   -2591022.923
10 0 59710  26460.00000  0    1521773.472   -6768835.532   -1306880.937
10 0 59710  26640.00000  0    1265912.996   -6942631.016      25246.418
10 0 59710  26820.00000  0     962696.790   -6855606.597    1356435.122
10 0 59710  27000.00000  0     629984.380   -6509713.940    2637686.978
10 0 59710  27180.00000  0     286562.458   -5916976.097    3821807.877
10 0 59710  27360.00000  0     -48818.160   -5099038.976    4865208.924
10 0 59710  27540.00000  0    -358386.650   -4086321.676    5729548.589
10 0 59710  27720.00000  0    -626226.009   -2916810.271    6383153.413
10 0 59710  27900.00000  0    -839034.910   -1634556.900    6802160.868
10 0 59710  28080.00000  0    -986745.180    -287967.232    6971352.631
10 0 59710  28260.00000  0   -1062972.328    1072059.868    6884675.420
10 0 59710  28440.00000  0   -1065281.130    2394076.678    6545433.387
10 0 59710  28620.00000  0    -995256.448    3628044.413    5966152.970
10 0 59710  28800.00000  0    -858381.589    4727240.532    5168126.953
10 0 59710  28980.00000  0    -663728.895    5650051.801    4180648.374
10 0 59710  29160.00000  0    -423475.718    6361586.666    3039949.013
10 0 59710  29340.00000  0    -152268.109    6835039.894    1787876.801
10 0 59710  29520.00000  0     133542.492    7052748.943     470340.025
10 0 59710  29700.00000  0     416754.179    7006872.632    -864410.780
10 0 59710  29880.00000  0     680212.374    6699667.037   -2167591.085
10 0 59710  30060.00000  0     907698.625    6143340.963   -3391698.845
10 0 59710  30240.00000  0    1084768.253    5359513.151   -4492256.961
10 0 59710  30420.00000  0    1199499.307    4378304.273   -5429414.640
10 0 59710  30600.00000  0    1243116.356    3237116.093   -6169345.701
10 0 59710  30780.00000  0    1210461.273    1979164.593   -6685404.337
10 0 59710  30960.00000  0    1100294.443     651833.629   -6959011.689
10 0 59710  31140.00000  0     915418.748    -695085.542   -6980267.245
10 0 59710  31320.00000  0     662621.242   -2011218.778   -6748277.442
10 0 59710  31500.00000  0     352435.242   -3247439.602   -6271199.788
10 0 59710  31680.00000  0      -1272.132   -4357666.562   -5566009.674
10 0 59710  31860.00000  0    -381878.251   -5300578.889   -4657971.726
10 0 59710  32040.00000  0    -770731.299   -6041189.476   -3579820.125
10 0 59710  32220.00000  0   -1148002.797   -6552215.183   -2370651.256
10 0 59710  32400.00000  0   -1493630.730   -6815176.081   -1074549.715
10 0 59710  32580.00000  0   -1788309.357   -6821161.403     261016.621
10 0 59710  32760.00000  0   -2014474.749   -6571205.249    1586971.752
10 0 59710  32940.00000  0   -2157233.564   -6076241.732    2854497.544
10 0 59710  33120.00000  0   -2205180.265   -5356633.170    4016903.504
10 0 59710  33300.00000  0   -2151055.203   -4441295.694    5031406.301
10 0 59710  33480.00000  0   -1992211.841   -3366477.432    5860738.813
10 0 59710  33660.00000  0   -1730870.956   -2174251.505    6474526.457
10 0 59710  33840.00000  0   -1374147.411    -910806.267    6850377.281
10 0 59710  34020.00000  0    -933857.413     375388.307    6974663.974
10 0 59710  34200.00000  0    -426117.211    1635465.452    6842981.200
10 0 59710  34380.00000  0     129258.392    2822030.526    6460280.668
10 0 59710  34560.00000  0     709536.766    3890952.817    5840678.205
10 0 59710  34740.00000  0    1289995.916    4803020.227    5006942.198
99
